{"fetched_at":"2026-03-29T16:36:15Z","count":15609,"tles":[{"name":"BANE","line1":"1 58465U 23185D   26087.80350183  .00148171  00000+0  10853-2 0  9998","line2":"2 58465  97.3420 171.2845 0003870 136.3275 223.8296 15.72726566130090","category":"Other"}]}