{
  "norad_id": 58465,
  "name": "BANE",
  "history": [
    {
      "epoch": "2026-03-28T19:17:02.558112",
      "apogee_km": 353.7125789454776,
      "perigee_km": 348.50400850322876,
      "latitude_deg": -84.93125120218082,
      "longitude_deg": 103.63617567997426,
      "semi_major_axis_km": 6729.245293724352,
      "eccentricity": 0.00038701,
      "inclination_deg": 97.342,
      "raan_deg": 171.2845,
      "arg_perigee_deg": 136.3275,
      "mean_anomaly_deg": 223.8296,
      "mean_motion_rev_day": 15.72726566
    }
  ]
}